IRIDIUM 64 [+]          
1 25287U 98021C   17088.48091237 -.00000054  00000-0 -26305-4 0  9993
2 25287  86.3928 257.2455 0002167  92.1233 268.0211 14.34212907993574
IRIDIUM 65 [+]          
1 25288U 98021D   17088.83610138 -.00000042  00000-0 -22100-4 0  9996
2 25288  86.3927 257.0017 0001871  91.6806 268.4604 14.34212855993366
IRIDIUM 66 [+]          
1 25289U 98021E   17088.84244086 -.00000048  00000-0 -24029-4 0  9991
2 25289  86.3926 256.9030 0001920  88.6536 271.4879 14.34212954993649
IRIDIUM 67 [+]          
1 25290U 98021F   17088.91855361  .00000005  00000-0 -53305-5 0  9997
2 25290  86.3927 257.0064 0002064  93.5571 266.5860 14.34213176993388
IRIDIUM 68 [+]          
1 25291U 98021G   17088.85510415 -.00000040  00000-0 -21454-4 0  9998
2 25291  86.3928 257.1502 0002022  91.1673 268.9755 14.34213116993348
IRIDIUM 69 [-]          
1 25319U 98026A   17088.54302209  .00000114  00000-0  30572-4 0  9991
2 25319  86.3948 279.2175 0002935 129.2638 230.8821 14.38658092991338
IRIDIUM 71 [-]          
1 25320U 98026B   17088.48669937  .00000123  00000-0  33341-4 0  9997
2 25320  86.3930 275.1664 0000834 162.0915 198.0313 14.39072006992000
IRIDIUM 70 [+]          
1 25342U 98032A   17088.97165234  .00000004  00000-0 -55033-5 0  9995
2 25342  86.3932 257.3397 0001954  92.5036  18.0140 14.34213682987461
IRIDIUM 72 [+]          
1 25343U 98032B   17088.86779797 -.00000047  00000-0 -23734-4 0  9999
2 25343  86.3928 257.0000 0001956  89.3947 270.7473 14.34213423987450
IRIDIUM 73 [-]          
1 25344U 98032C   17088.93595795  .00000167  00000-0  38732-4 0  9997
2 25344  86.4428 236.3987 0001892  75.6149 284.5265 14.49020426995795
IRIDIUM 74 [S]          
1 25345U 98032D   17088.87986881 -.00000075  00000-0 -28725-4 0  9992
2 25345  86.4442 257.4067 0004832 305.3630 168.0284 14.42440442991026
IRIDIUM 75 [+]          
1 25346U 98032E   17088.87413624 -.00000040  00000-0 -21387-4 0  9992
2 25346  86.3930 257.2471 0001982  89.1014 271.0408 14.34213545988034
IRIDIUM 3 [+]           
1 25431U 98048A   17088.66235671 -.00000043  00000-0 -22587-4 0  9991
2 25431  86.3920 288.9540 0001827  85.0645 343.1406 14.34217102973945
IRIDIUM 76 [+]          
1 25432U 98048B   17088.60997354 -.00000044  00000-0 -22711-4 0  9999
2 25432  86.3917 288.7325 0001953  80.8700 338.8658 14.34216481974193
IRIDIUM 82 [+]          
1 25467U 98051A   17088.84693002  .00000082  00000-0  22242-4 0  9999
2 25467  86.3952  55.2988 0002354  95.7721 264.3743 14.34209731975241
IRIDIUM 81 [+]          
1 25468U 98051B   17088.84056178  .00000117  00000-0  34833-4 0  9995
2 25468  86.3960  54.9439 0002380  85.2226 274.9241 14.34217317971437
IRIDIUM 80 [+]          
1 25469U 98051C   17088.97284480  .00000079  00000-0  21002-4 0  9990
2 25469  86.3963  55.1729 0002398  84.9155 336.2621 14.34216192971458
IRIDIUM 77 [+]          
1 25471U 98051E   17088.90759262  .00000107  00000-0  31223-4 0  9999
2 25471  86.3955  54.7747 0002180  84.0434 327.7341 14.34216335976411
IRIDIUM 2 [-]           
1 25527U 98066A   17088.80434566  .00002281  00000-0  11580-3 0  9991
2 25527  85.5274  79.1026 0010593  35.3925 324.8015 15.16300256  6338
IRIDIUM 86 [+]          
1 25528U 98066B   17088.85618745  .00000228  00000-0  74170-4 0  9994
2 25528  86.3997  22.9624 0002006  83.9213 276.2211 14.34221772967753
IRIDIUM 84 [+]          
1 25530U 98066D   17088.88791149  .00000228  00000-0  74518-4 0  9996
2 25530  86.3996  23.1127 0002211  82.4394 277.7053 14.34221989965565
IRIDIUM 83 [+]          
1 25531U 98066E   17088.91960495  .00000219  00000-0  71044-4 0  9994
2 25531  86.4001  23.2215 0002310  82.8553 277.2905 14.34216317962707
IRIDIUM 20 [+]          
1 25577U 98074A   17088.63013486 -.00000052  00000-0 -25535-4 0  9992
2 25577  86.3915 288.6462 0001938  85.6859 274.4559 14.34216374142422
IRIDIUM 11 [+]          
1 25578U 98074B   17088.65570887 -.00000044  00000-0 -22632-4 0  9994
2 25578  86.3915 288.8379 0001956  88.8219 337.7862 14.34216593965995
IRIDIUM 14 [+]          
1 25777U 99032A   17088.89318637  .00000027  00000-0  25262-5 0  9991
2 25777  86.3930 257.0706 0001928  94.2265 265.9151 14.34212612943230
IRIDIUM 21 [+]          
1 25778U 99032B   17088.86145601 -.00000036  00000-0 -19900-4 0  9991
2 25778  86.3928 257.1040 0002080  85.9557 274.1877 14.34213662936663
IRIDIUM 91 [+]          
1 27372U 02005A   17088.70217970  .00000138  00000-0  42119-4 0  9998
2 27372  86.3959 320.4138 0001826  72.8323 346.7252 14.34219264800188
IRIDIUM 90 [S]          
1 27373U 02005B   17088.85857833  .00000266  00000-0  73474-4 0  9993
2 27373  86.4510  23.2287 0002127  81.7369 278.4073 14.42950142799848
IRIDIUM 94 [+]          
1 27374U 02005C   17088.60307668 -.00000086  00000-0 -37824-4 0  9994
2 27374  86.3917 288.9881 0001721  63.6993 353.1960 14.34216521804514
IRIDIUM 95 [+]          
1 27375U 02005D   17088.93801891  .00000126  00000-0  37795-4 0  9998
2 27375  86.3728 320.4874 0002065  81.5849 278.5581 14.34218541799527
IRIDIUM 96 [+]          
1 27376U 02005E   17088.77664738  .00000251  00000-0  82553-4 0  9999
2 27376  86.4032 352.3959 0003132  66.4637 293.6888 14.34218234205392
IRIDIUM 97 [+]          
1 27450U 02031A   17088.81468895  .00000229  00000-0  74839-4 0  9995
2 27450  86.4001 352.0853 0002289  87.8970 272.2488 14.34218661778804
IRIDIUM 98 [+]          
1 27451U 02031B   17088.61212521  .00000068  00000-0  17057-4 0  9997
2 27451  86.3955  55.4721 0002352  86.7411  11.3589 14.34216409779879
